STARLINK-36827          
1 67908U 26036E   26073.58335648 -.01946397  00000+0 -18367-1 0  9993
2 67908  42.9991 219.9556 0001673 275.9498  88.8750 15.69193310  4439
STARLINK-36822          
1 67909U 26036F   26073.58335648 -.01943957  00000+0 -21597-1 0  9992
2 67909  42.9994 220.0706 0001658 273.4775  44.9074 15.65221054  4432
STARLINK-36847          
1 67910U 26036G   26073.58335648 -.01939954  00000+0 -22311-1 0  9991
2 67910  42.9998 220.0918 0001589 271.4524  38.4372 15.64355551  4434
STARLINK-36736          
1 67911U 26036H   26073.58335648 -.01946380  00000+0 -15861-1 0  9995
2 67911  42.9991 219.8403 0001497 276.6413 134.0017 15.72645829  4433
STARLINK-36676          
1 67912U 26036J   26073.58335648 -.01944011  00000+0 -17336-1 0  9994
2 67912  42.9991 219.8772 0001510 273.4595 122.4914 15.70534513  4437
STARLINK-36690          
1 67913U 26036K   26073.58335648 -.01944300  00000+0 -17309-1 0  9996
2 67913  42.9990 219.8653 0001486 273.8038 126.8286 15.70575306  4438
STARLINK-36724          
1 67914U 26036L   26073.58335648 -.01980621  00000+0 -17396-1 0  9999
2 67914  42.9990 219.8337 0001217 273.0748 139.8781 15.70953279  4433
STARLINK-36723          
1 67915U 26036M   26073.58335648 -.01948924  00000+0 -16119-1 0  9992
2 67915  42.9989 219.8151 0001531 277.4189 143.2413 15.72306116  4437
STARLINK-36721          
1 67916U 26036N   26073.58335648 -.01949270  00000+0 -16097-1 0  9993
2 67916  42.9989 219.7930 0001525 278.2687 151.2319 15.72342355  4436
STARLINK-36722          
1 67917U 26036P   26073.58335648 -.01911311  00000+0 -14049-1 0  9994
2 67917  42.9988 219.7273 0001552 280.2715 175.3347 15.75469504  4438
STARLINK-36341          
1 67918U 26036Q   26073.58335648 -.01940473  00000+0 -28773-1 0  9995
2 67918  42.9995 220.2848 0001429 264.2846 326.8655 15.57856183  4430
STARLINK-36663          
1 67919U 26036R   26073.58335648 -.01948513  00000+0 -15892-1 0  9997
2 67919  42.9988 219.7656 0001543 280.6724 159.7189 15.72629205  4432
STARLINK-36375          
1 67920U 26036S   26073.58335648 -.01947720  00000+0 -20310-1 0  9999
2 67920  42.9993 219.8992 0001600 278.7528 108.1931 15.66784361  4439
STARLINK-36405          
1 67921U 26036T   26073.58335648 -.01940342  00000+0 -28540-1 0  9996
2 67921  42.9995 220.2531 0001527 266.4827 337.5769 15.58066628  4438
STARLINK-36383          
1 67922U 26036U   26073.43329497 -.00411615  00000+0 -20520-2 0  9992
2 67922  42.9984 220.5435 0001212 227.0891 132.9879 15.81960713  4420
STARLINK-36406          
1 67923U 26036V   26073.58335648 -.01828913  00000+0 -31599-1 0  9995
2 67923  42.9994 220.4817 0001748 286.6985 225.3553 15.53555799  4434
