[{"OBJECT_NAME":"STARLINK-36827","OBJECT_ID":"2026-036E","EPOCH":"2026-03-14T14:00:01.999872","MEAN_MOTION":15.6919331,"ECCENTRICITY":0.00016732,"INCLINATION":42.9991,"RA_OF_ASC_NODE":219.9556,"ARG_OF_PERICENTER":275.9498,"MEAN_ANOMALY":88.875,"EPHEMERIS_TYPE":0,"CLASSIFICATION_TYPE":"U","NORAD_CAT_ID":67908,"ELEMENT_SET_NO":999,"REV_AT_EPOCH":443,"BSTAR":-0.018366975,"MEAN_MOTION_DOT":-0.01946397,"MEAN_MOTION_DDOT":0},{"OBJECT_NAME":"STARLINK-36822","OBJECT_ID":"2026-036F","EPOCH":"2026-03-14T14:00:01.999872","MEAN_MOTION":15.65221054,"ECCENTRICITY":0.00016584,"INCLINATION":42.9994,"RA_OF_ASC_NODE":220.0706,"ARG_OF_PERICENTER":273.4775,"MEAN_ANOMALY":44.9074,"EPHEMERIS_TYPE":0,"CLASSIFICATION_TYPE":"U","NORAD_CAT_ID":67909,"ELEMENT_SET_NO":999,"REV_AT_EPOCH":443,"BSTAR":-0.021596599,"MEAN_MOTION_DOT":-0.01943957,"MEAN_MOTION_DDOT":0},{"OBJECT_NAME":"STARLINK-36847","OBJECT_ID":"2026-036G","EPOCH":"2026-03-14T14:00:01.999872","MEAN_MOTION":15.64355551,"ECCENTRICITY":0.00015895,"INCLINATION":42.9998,"RA_OF_ASC_NODE":220.0918,"ARG_OF_PERICENTER":271.4524,"MEAN_ANOMALY":38.4372,"EPHEMERIS_TYPE":0,"CLASSIFICATION_TYPE":"U","NORAD_CAT_ID":67910,"ELEMENT_SET_NO":999,"REV_AT_EPOCH":443,"BSTAR":-0.022311337,"MEAN_MOTION_DOT":-0.01939954,"MEAN_MOTION_DDOT":0},{"OBJECT_NAME":"STARLINK-36736","OBJECT_ID":"2026-036H","EPOCH":"2026-03-14T14:00:01.999872","MEAN_MOTION":15.72645829,"ECCENTRICITY":0.00014976,"INCLINATION":42.9991,"RA_OF_ASC_NODE":219.8403,"ARG_OF_PERICENTER":276.6413,"MEAN_ANOMALY":134.0017,"EPHEMERIS_TYPE":0,"CLASSIFICATION_TYPE":"U","NORAD_CAT_ID":67911,"ELEMENT_SET_NO":999,"REV_AT_EPOCH":443,"BSTAR":-0.015860997,"MEAN_MOTION_DOT":-0.0194638,"MEAN_MOTION_DDOT":0},{"OBJECT_NAME":"STARLINK-36676","OBJECT_ID":"2026-036J","EPOCH":"2026-03-14T14:00:01.999872","MEAN_MOTION":15.70534513,"ECCENTRICITY":0.00015107,"INCLINATION":42.9991,"RA_OF_ASC_NODE":219.8772,"ARG_OF_PERICENTER":273.4595,"MEAN_ANOMALY":122.4914,"EPHEMERIS_TYPE":0,"CLASSIFICATION_TYPE":"U","NORAD_CAT_ID":67912,"ELEMENT_SET_NO":999,"REV_AT_EPOCH":443,"BSTAR":-0.017335759,"MEAN_MOTION_DOT":-0.01944011,"MEAN_MOTION_DDOT":0},{"OBJECT_NAME":"STARLINK-36690","OBJECT_ID":"2026-036K","EPOCH":"2026-03-14T14:00:01.999872","MEAN_MOTION":15.70575306,"ECCENTRICITY":0.00014863,"INCLINATION":42.999,"RA_OF_ASC_NODE":219.8653,"ARG_OF_PERICENTER":273.8038,"MEAN_ANOMALY":126.8286,"EPHEMERIS_TYPE":0,"CLASSIFICATION_TYPE":"U","NORAD_CAT_ID":67913,"ELEMENT_SET_NO":999,"REV_AT_EPOCH":443,"BSTAR":-0.017308918,"MEAN_MOTION_DOT":-0.019443,"MEAN_MOTION_DDOT":0},{"OBJECT_NAME":"STARLINK-36724","OBJECT_ID":"2026-036L","EPOCH":"2026-03-14T14:00:01.999872","MEAN_MOTION":15.70953279,"ECCENTRICITY":0.00012176,"INCLINATION":42.999,"RA_OF_ASC_NODE":219.8337,"ARG_OF_PERICENTER":273.0748,"MEAN_ANOMALY":139.8781,"EPHEMERIS_TYPE":0,"CLASSIFICATION_TYPE":"U","NORAD_CAT_ID":67914,"ELEMENT_SET_NO":999,"REV_AT_EPOCH":443,"BSTAR":-0.017396233,"MEAN_MOTION_DOT":-0.01980621,"MEAN_MOTION_DDOT":0},{"OBJECT_NAME":"STARLINK-36723","OBJECT_ID":"2026-036M","EPOCH":"2026-03-14T14:00:01.999872","MEAN_MOTION":15.72306116,"ECCENTRICITY":0.00015319,"INCLINATION":42.9989,"RA_OF_ASC_NODE":219.8151,"ARG_OF_PERICENTER":277.4189,"MEAN_ANOMALY":143.2413,"EPHEMERIS_TYPE":0,"CLASSIFICATION_TYPE":"U","NORAD_CAT_ID":67915,"ELEMENT_SET_NO":999,"REV_AT_EPOCH":443,"BSTAR":-0.016118513,"MEAN_MOTION_DOT":-0.01948924,"MEAN_MOTION_DDOT":0},{"OBJECT_NAME":"STARLINK-36721","OBJECT_ID":"2026-036N","EPOCH":"2026-03-14T14:00:01.999872","MEAN_MOTION":15.72342355,"ECCENTRICITY":0.00015254,"INCLINATION":42.9989,"RA_OF_ASC_NODE":219.793,"ARG_OF_PERICENTER":278.2687,"MEAN_ANOMALY":151.2319,"EPHEMERIS_TYPE":0,"CLASSIFICATION_TYPE":"U","NORAD_CAT_ID":67916,"ELEMENT_SET_NO":999,"REV_AT_EPOCH":443,"BSTAR":-0.016096661,"MEAN_MOTION_DOT":-0.0194927,"MEAN_MOTION_DDOT":0},{"OBJECT_NAME":"STARLINK-36722","OBJECT_ID":"2026-036P","EPOCH":"2026-03-14T14:00:01.999872","MEAN_MOTION":15.75469504,"ECCENTRICITY":0.00015529,"INCLINATION":42.9988,"RA_OF_ASC_NODE":219.7273,"ARG_OF_PERICENTER":280.2715,"MEAN_ANOMALY":175.3347,"EPHEMERIS_TYPE":0,"CLASSIFICATION_TYPE":"U","NORAD_CAT_ID":67917,"ELEMENT_SET_NO":999,"REV_AT_EPOCH":443,"BSTAR":-0.014048671,"MEAN_MOTION_DOT":-0.01911311,"MEAN_MOTION_DDOT":0},{"OBJECT_NAME":"STARLINK-36341","OBJECT_ID":"2026-036Q","EPOCH":"2026-03-14T14:00:01.999872","MEAN_MOTION":15.57856183,"ECCENTRICITY":0.00014294,"INCLINATION":42.9995,"RA_OF_ASC_NODE":220.2848,"ARG_OF_PERICENTER":264.2846,"MEAN_ANOMALY":326.8655,"EPHEMERIS_TYPE":0,"CLASSIFICATION_TYPE":"U","NORAD_CAT_ID":67918,"ELEMENT_SET_NO":999,"REV_AT_EPOCH":443,"BSTAR":-0.028773114,"MEAN_MOTION_DOT":-0.01940473,"MEAN_MOTION_DDOT":0},{"OBJECT_NAME":"STARLINK-36663","OBJECT_ID":"2026-036R","EPOCH":"2026-03-14T14:00:01.999872","MEAN_MOTION":15.72629205,"ECCENTRICITY":0.00015433,"INCLINATION":42.9988,"RA_OF_ASC_NODE":219.7656,"ARG_OF_PERICENTER":280.6724,"MEAN_ANOMALY":159.7189,"EPHEMERIS_TYPE":0,"CLASSIFICATION_TYPE":"U","NORAD_CAT_ID":67919,"ELEMENT_SET_NO":999,"REV_AT_EPOCH":443,"BSTAR":-0.015891686,"MEAN_MOTION_DOT":-0.01948513,"MEAN_MOTION_DDOT":0},{"OBJECT_NAME":"STARLINK-36375","OBJECT_ID":"2026-036S","EPOCH":"2026-03-14T14:00:01.999872","MEAN_MOTION":15.66784361,"ECCENTRICITY":0.00016004,"INCLINATION":42.9993,"RA_OF_ASC_NODE":219.8992,"ARG_OF_PERICENTER":278.7528,"MEAN_ANOMALY":108.1931,"EPHEMERIS_TYPE":0,"CLASSIFICATION_TYPE":"U","NORAD_CAT_ID":67920,"ELEMENT_SET_NO":999,"REV_AT_EPOCH":443,"BSTAR":-0.020310117,"MEAN_MOTION_DOT":-0.0194772,"MEAN_MOTION_DDOT":0},{"OBJECT_NAME":"STARLINK-36405","OBJECT_ID":"2026-036T","EPOCH":"2026-03-14T14:00:01.999872","MEAN_MOTION":15.58066628,"ECCENTRICITY":0.00015276,"INCLINATION":42.9995,"RA_OF_ASC_NODE":220.2531,"ARG_OF_PERICENTER":266.4827,"MEAN_ANOMALY":337.5769,"EPHEMERIS_TYPE":0,"CLASSIFICATION_TYPE":"U","NORAD_CAT_ID":67921,"ELEMENT_SET_NO":999,"REV_AT_EPOCH":443,"BSTAR":-0.028540073,"MEAN_MOTION_DOT":-0.01940342,"MEAN_MOTION_DDOT":0},{"OBJECT_NAME":"STARLINK-36383","OBJECT_ID":"2026-036U","EPOCH":"2026-03-14T10:23:56.685408","MEAN_MOTION":15.81960713,"ECCENTRICITY":0.00012128,"INCLINATION":42.9984,"RA_OF_ASC_NODE":220.5435,"ARG_OF_PERICENTER":227.0891,"MEAN_ANOMALY":132.9879,"EPHEMERIS_TYPE":0,"CLASSIFICATION_TYPE":"U","NORAD_CAT_ID":67922,"ELEMENT_SET_NO":999,"REV_AT_EPOCH":442,"BSTAR":-0.0020519667,"MEAN_MOTION_DOT":-0.00411615,"MEAN_MOTION_DDOT":0},{"OBJECT_NAME":"STARLINK-36406","OBJECT_ID":"2026-036V","EPOCH":"2026-03-14T14:00:01.999872","MEAN_MOTION":15.53555799,"ECCENTRICITY":0.00017485,"INCLINATION":42.9994,"RA_OF_ASC_NODE":220.4817,"ARG_OF_PERICENTER":286.6985,"MEAN_ANOMALY":225.3553,"EPHEMERIS_TYPE":0,"CLASSIFICATION_TYPE":"U","NORAD_CAT_ID":67923,"ELEMENT_SET_NO":999,"REV_AT_EPOCH":443,"BSTAR":-0.031598921,"MEAN_MOTION_DOT":-0.01828913,"MEAN_MOTION_DDOT":0}]
